start=new Date('2023-02-01T00:00:00.000Z').valueOf();
sats=[{"EPHEMERIS_TYPE":"0","PERIOD":"91.532","MEAN_MOTION_DOT":"0.00021611","OBJECT_NAME":"STARLINK-5426","BSTAR":"0.00015780000000","MEAN_MOTION_DDOT":"0.0000000000000","MEAN_MOTION":"15.73227329","EPOCH":"2023-01-31T20:35:41.662176","FILE":"3766747","GP_ID":"224130227","MEAN_ELEMENT_THEORY":"SGP4","REV_AT_EPOCH":"903","TLE_LINE2":"2 54802  53.2160  79.8777 0003238  23.1943 336.9223 15.73227329  9032","TLE_LINE1":"1 54802U 22175AW  23031.85812109  .00021611  00000-0  15780-3 0  9994","PERIAPSIS":"347.504","RCS_SIZE":"LARGE","ELEMENT_SET_NO":"999","CLASSIFICATION_TYPE":"U","MEAN_ANOMALY":"336.9223","TIME_SYSTEM":"UTC","SEMIMAJOR_AXIS":"6727.817","REF_FRAME":"TEME","NORAD_CAT_ID":"54802","APOAPSIS":"351.861","SITE":"AFETR","DECAY_DATE":null,"ECCENTRICITY":"0.00032380","INCLINATION":"53.2160","RA_OF_ASC_NODE":"79.8777","COUNTRY_CODE":"US","ARG_OF_PERICENTER":"23.1943","LAUNCH_DATE":"2022-12-17","OBJECT_ID":"2022-175AW","CENTER_NAME":"EARTH","OBJECT_TYPE":"PAYLOAD"},{"FILE":"3766747","EPOCH":"2023-01-31T22:00:00.999936","MEAN_ELEMENT_THEORY":"SGP4","GP_ID":"224128975","PERIAPSIS":"538.990","TLE_LINE1":"1 54803U 22175AX  23031.91667824  .00019830  00000-0  12605-2 0  9996","TLE_LINE2":"2 54803  53.2149  89.1218 0001091  90.7847 192.5110 15.08840252  1309","REV_AT_EPOCH":"130","CLASSIFICATION_TYPE":"U","ELEMENT_SET_NO":"999","RCS_SIZE":"LARGE","MEAN_MOTION_DOT":"0.00019830","PERIOD":"95.438","EPHEMERIS_TYPE":"0","BSTAR":"0.00126050000000","OBJECT_NAME":"STARLINK-5430","MEAN_MOTION":"15.08840252","MEAN_MOTION_DDOT":"0.0000000000000","INCLINATION":"53.2149","ECCENTRICITY":"0.00010910","ARG_OF_PERICENTER":"90.7847","COUNTRY_CODE":"US","RA_OF_ASC_NODE":"89.1218","CENTER_NAME":"EARTH","OBJECT_ID":"2022-175AX","LAUNCH_DATE":"2022-12-17","OBJECT_TYPE":"PAYLOAD","TIME_SYSTEM":"UTC","MEAN_ANOMALY":"192.5110","REF_FRAME":"TEME","NORAD_CAT_ID":"54803","SEMIMAJOR_AXIS":"6917.880","APOAPSIS":"540.499","DECAY_DATE":null,"SITE":"AFETR"},{"SEMIMAJOR_AXIS":"6727.860","NORAD_CAT_ID":"54804","REF_FRAME":"TEME","MEAN_ANOMALY":"213.1026","TIME_SYSTEM":"UTC","SITE":"AFETR","DECAY_DATE":null,"APOAPSIS":"351.057","RA_OF_ASC_NODE":"84.9281","ARG_OF_PERICENTER":"147.0118","COUNTRY_CODE":"US","INCLINATION":"53.2163","ECCENTRICITY":"0.00019790","OBJECT_TYPE":"PAYLOAD","OBJECT_ID":"2022-175AY","LAUNCH_DATE":"2022-12-17","CENTER_NAME":"EARTH","BSTAR":"0.00001677100000","OBJECT_NAME":"STARLINK-5422","PERIOD":"91.532","EPHEMERIS_TYPE":"0","MEAN_MOTION_DOT":"0.00001734","MEAN_MOTION":"15.73212232","MEAN_MOTION_DDOT":"0.0000000000000","GP_ID":"224098361","MEAN_ELEMENT_THEORY":"SGP4","EPOCH":"2023-01-31T12:10:42.345120","FILE":"3766475","ELEMENT_SET_NO":"999","RCS_SIZE":"LARGE","CLASSIFICATION_TYPE":"U","TLE_LINE2":"2 54804  53.2163  84.9281 0001979 147.0118 213.1026 15.73212232  8936","REV_AT_EPOCH":"893","PERIAPSIS":"348.394","TLE_LINE1":"1 54804U 22175AY  23031.50743455  .00001734  00000-0  16771-4 0  9991"},{"APOAPSIS":"350.615","SITE":"AFETR","DECAY_DATE":null,"MEAN_ANOMALY":"280.9057","TIME_SYSTEM":"UTC","SEMIMAJOR_AXIS":"6727.857","NORAD_CAT_ID":"54805","REF_FRAME":"TEME","LAUNCH_DATE":"2022-12-17","OBJECT_ID":"2022-175AZ","CENTER_NAME":"EARTH","OBJECT_TYPE":"PAYLOAD","ECCENTRICITY":"0.00013270","INCLINATION":"53.2164","RA_OF_ASC_NODE":"85.2419","COUNTRY_CODE":"US","ARG_OF_PERICENTER":"79.2112","MEAN_MOTION_DDOT":"0.0000000000000","MEAN_MOTION":"15.73213253","EPHEMERIS_TYPE":"0","PERIOD":"91.532","MEAN_MOTION_DOT":"0.00001472","OBJECT_NAME":"STARLINK-5417","BSTAR":"0.00001489400000","REV_AT_EPOCH":"892","TLE_LINE2":"2 54805  53.2164  85.2419 0001327  79.2112 280.9057 15.73213253  8921","TLE_LINE1":"1 54805U 22175AZ  23031.44401037  .00001472  00000-0  14894-4 0  9995","PERIAPSIS":"348.830","RCS_SIZE":"MEDIUM","ELEMENT_SET_NO":"999","CLASSIFICATION_TYPE":"U","EPOCH":"2023-01-31T10:39:22.495968","FILE":"3766475","GP_ID":"224099089","MEAN_ELEMENT_THEORY":"SGP4"},{"OBJECT_NAME":"STARLINK-5412","BSTAR":"0.00001612000000","EPHEMERIS_TYPE":"0","PERIOD":"91.532","MEAN_MOTION_DOT":"0.00001644","MEAN_MOTION_DDOT":"0.0000000000000","MEAN_MOTION":"15.73214084","GP_ID":"224098842","MEAN_ELEMENT_THEORY":"SGP4","EPOCH":"2023-01-31T10:38:55.287744","FILE":"3766475","RCS_SIZE":"LARGE","ELEMENT_SET_NO":"999","CLASSIFICATION_TYPE":"U","REV_AT_EPOCH":"892","TLE_LINE2":"2 54806  53.2171  85.2417 0001095  85.2192 274.8954 15.73214084  8926","TLE_LINE1":"1 54806U 22175BA  23031.44369546  .00001644  00000-0  16120-4 0  9999","PERIAPSIS":"348.983","SEMIMAJOR_AXIS":"6727.855","NORAD_CAT_ID":"54806","REF_FRAME":"TEME","MEAN_ANOMALY":"274.8954","TIME_SYSTEM":"UTC","SITE":"AFETR","DECAY_DATE":null,"APOAPSIS":"350.457","RA_OF_ASC_NODE":"85.2417","COUNTRY_CODE":"US","ARG_OF_PERICENTER":"85.2192","ECCENTRICITY":"0.00010950","INCLINATION":"53.2171","OBJECT_TYPE":"PAYLOAD","LAUNCH_DATE":"2022-12-17","OBJECT_ID":"2022-175BA","CENTER_NAME":"EARTH"},{"APOAPSIS":"350.552","SITE":"AFETR","DECAY_DATE":null,"MEAN_ANOMALY":"279.3122","TIME_SYSTEM":"UTC","SEMIMAJOR_AXIS":"6727.847","NORAD_CAT_ID":"54807","REF_FRAME":"TEME","LAUNCH_DATE":"2022-12-17","OBJECT_ID":"2022-175BB","CENTER_NAME":"EARTH","OBJECT_TYPE":"PAYLOAD","ECCENTRICITY":"0.00012490","INCLINATION":"53.2161","RA_OF_ASC_NODE":"85.2414","COUNTRY_CODE":"US","ARG_OF_PERICENTER":"80.8040","MEAN_MOTION_DDOT":"0.0000000000000","MEAN_MOTION":"15.73217039","EPHEMERIS_TYPE":"0","PERIOD":"91.532","MEAN_MOTION_DOT":"0.00003269","OBJECT_NAME":"STARLINK-5410","BSTAR":"0.00002767800000","REV_AT_EPOCH":"892","TLE_LINE2":"2 54807  53.2161  85.2414 0001249  80.8040 279.3122 15.73217039  8927","TLE_LINE1":"1 54807U 22175BB  23031.44380136  .00003269  00000-0  27678-4 0  9993","PERIAPSIS":"348.871","RCS_SIZE":"LARGE","ELEMENT_SET_NO":"999","CLASSIFICATION_TYPE":"U","EPOCH":"2023-01-31T10:39:04.437504","FILE":"3766475","GP_ID":"224098116","MEAN_ELEMENT_THEORY":"SGP4"},{"APOAPSIS":"350.433","DECAY_DATE":null,"SITE":"AFETR","TIME_SYSTEM":"UTC","MEAN_ANOMALY":"280.9306","REF_FRAME":"TEME","NORAD_CAT_ID":"54808","SEMIMAJOR_AXIS":"6727.860","CENTER_NAME":"EARTH","LAUNCH_DATE":"2022-12-17","OBJECT_ID":"2022-175BC","OBJECT_TYPE":"PAYLOAD","ECCENTRICITY":"0.00010520","INCLINATION":"53.2172","COUNTRY_CODE":"US","ARG_OF_PERICENTER":"79.1832","RA_OF_ASC_NODE":"85.2405","MEAN_MOTION_DDOT":"0.0000000000000","MEAN_MOTION":"15.73212202","MEAN_MOTION_DOT":"0.00000965","EPHEMERIS_TYPE":"0","PERIOD":"91.532","OBJECT_NAME":"STARLINK-5413","BSTAR":"0.00001128300000","TLE_LINE1":"1 54808U 22175BC  23031.44348373  .00000965  00000-0  11283-4 0  9996","PERIAPSIS":"349.018","REV_AT_EPOCH":"892","TLE_LINE2":"2 54808  53.2172  85.2405 0001052  79.1832 280.9306 15.73212202  8921","CLASSIFICATION_TYPE":"U","RCS_SIZE":"LARGE","ELEMENT_SET_NO":"999","FILE":"3766475","EPOCH":"2023-01-31T10:38:36.994272","MEAN_ELEMENT_THEORY":"SGP4","GP_ID":"224097866"},{"MEAN_MOTION_DOT":"0.00005869","PERIOD":"91.532","EPHEMERIS_TYPE":"0","BSTAR":"0.00004617000000","OBJECT_NAME":"STARLINK-5414","MEAN_MOTION":"15.73219165","MEAN_MOTION_DDOT":"0.0000000000000","FILE":"3766475","EPOCH":"2023-01-31T06:04:20.035488","MEAN_ELEMENT_THEORY":"SGP4","GP_ID":"224098606","PERIAPSIS":"348.809","TLE_LINE1":"1 54809U 22175BD  23031.25300967  .00005869  00000-0  46170-4 0  9994","TLE_LINE2":"2 54809  53.2156  86.1830 0001332  91.1266 268.9907 15.73219165  8896","REV_AT_EPOCH":"889","CLASSIFICATION_TYPE":"U","ELEMENT_SET_NO":"999","RCS_SIZE":"LARGE","TIME_SYSTEM":"UTC","MEAN_ANOMALY":"268.9907","REF_FRAME":"TEME","NORAD_CAT_ID":"54809","SEMIMAJOR_AXIS":"6727.841","APOAPSIS":"350.602","DECAY_DATE":null,"SITE":"AFETR","INCLINATION":"53.2156","ECCENTRICITY":"0.00013320","ARG_OF_PERICENTER":"91.1266","COUNTRY_CODE":"US","RA_OF_ASC_NODE":"86.1830","CENTER_NAME":"EARTH","OBJECT_ID":"2022-175BD","LAUNCH_DATE":"2022-12-17","OBJECT_TYPE":"PAYLOAD"},{"OBJECT_ID":"2022-175BE","LAUNCH_DATE":"2022-12-17","CENTER_NAME":"EARTH","OBJECT_TYPE":"PAYLOAD","INCLINATION":"53.2166","ECCENTRICITY":"0.00012020","RA_OF_ASC_NODE":"85.2391","ARG_OF_PERICENTER":"99.4192","COUNTRY_CODE":"US","APOAPSIS":"350.537","SITE":"AFETR","DECAY_DATE":null,"MEAN_ANOMALY":"260.6964","TIME_SYSTEM":"UTC","SEMIMAJOR_AXIS":"6727.863","NORAD_CAT_ID":"54810","REF_FRAME":"TEME","TLE_LINE2":"2 54810  53.2166  85.2391 0001202  99.4192 260.6964 15.73211264  8924","REV_AT_EPOCH":"892","PERIAPSIS":"348.919","TLE_LINE1":"1 54810U 22175BE  23031.44338128  .00001091  00000-0  12184-4 0  9998","ELEMENT_SET_NO":"999","RCS_SIZE":"LARGE","CLASSIFICATION_TYPE":"U","EPOCH":"2023-01-31T10:38:28.142592","FILE":"3766475","GP_ID":"224099326","MEAN_ELEMENT_THEORY":"SGP4","MEAN_MOTION":"15.73211264","MEAN_MOTION_DDOT":"0.0000000000000","PERIOD":"91.533","EPHEMERIS_TYPE":"0","MEAN_MOTION_DOT":"0.00001091","BSTAR":"0.00001218400000","OBJECT_NAME":"STARLINK-5408"},{"TLE_LINE1":"1 54811U 22175BF  23031.44327829  .00000485  00000-0  78665-5 0  9998","PERIAPSIS":"348.982","REV_AT_EPOCH":"892","TLE_LINE2":"2 54811  53.2166  85.2361 0001130 121.0173 239.0958 15.73206433  8928","CLASSIFICATION_TYPE":"U","RCS_SIZE":"LARGE","ELEMENT_SET_NO":"999","FILE":"3766475","EPOCH":"2023-01-31T10:38:19.244256","MEAN_ELEMENT_THEORY":"SGP4","GP_ID":"224097621","MEAN_MOTION_DDOT":"0.0000000000000","MEAN_MOTION":"15.73206433","MEAN_MOTION_DOT":"0.00000485","EPHEMERIS_TYPE":"0","PERIOD":"91.533","OBJECT_NAME":"STARLINK-5424","BSTAR":"0.00000786650000","CENTER_NAME":"EARTH","LAUNCH_DATE":"2022-12-17","OBJECT_ID":"2022-175BF","OBJECT_TYPE":"PAYLOAD","ECCENTRICITY":"0.00011300","INCLINATION":"53.2166","COUNTRY_CODE":"US","ARG_OF_PERICENTER":"121.0173","RA_OF_ASC_NODE":"85.2361","APOAPSIS":"350.502","DECAY_DATE":null,"SITE":"AFETR","TIME_SYSTEM":"UTC","MEAN_ANOMALY":"239.0958","REF_FRAME":"TEME","NORAD_CAT_ID":"54811","SEMIMAJOR_AXIS":"6727.877"}];
